STARLINK-30250          
1 57527U 23115G   26068.19241819 -.00006688  00000+0 -23974-3 0  9992
2 57527  42.9981   4.5339 0000478 287.7071  72.3728 15.26761278143176
TRANSPORTER-14 OBJECT AC
1 64554U 25135AC  26068.82113864  .00024574  00000+0  93234-3 0  9990
2 64554  97.4518 185.7428 0001008 268.0523  92.0600 15.26845403 39827
